{
    "links": {
        "self": "http://www.neowsapp.com/rest/v1/neo/3735273?api_key=iIulBulltgU6a56xZRHN4H3l9WmuAYTsLGpBGhQ2"
    },
    "id": "3735273",
    "neo_reference_id": "3735273",
    "name": "(2015 WG)",
    "designation": "2015 WG",
    "nasa_jpl_url": "http://ssd.jpl.nasa.gov/sbdb.cgi?sstr=3735273",
    "absolute_magnitude_h": 24.0,
    "estimated_diameter": {
        "kilometers": {
            "estimated_diameter_min": 0.0421264611,
            "estimated_diameter_max": 0.0941976306
        },
        "meters": {
            "estimated_diameter_min": 42.1264610556,
            "estimated_diameter_max": 94.1976305719
        },
        "miles": {
            "estimated_diameter_min": 0.0261761612,
            "estimated_diameter_max": 0.0585316759
        },
        "feet": {
            "estimated_diameter_min": 138.2101784897,
            "estimated_diameter_max": 309.0473542854
        }
    },
    "is_potentially_hazardous_asteroid": false,
    "close_approach_data": [
        {
            "close_approach_date": "2015-12-01",
            "close_approach_date_full": "2015-Dec-01 07:03",
            "epoch_date_close_approach": 1448953380000,
            "relative_velocity": {
                "kilometers_per_second": "17.00811656",
                "kilometers_per_hour": "61229.2196161256",
                "miles_per_hour": "38045.4559331421"
            },
            "miss_distance": {
                "astronomical": "0.0465456617",
                "lunar": "18.1062624013",
                "kilometers": "6963131.848060579",
                "miles": "4326689.4991268302"
            },
            "orbiting_body": "Earth"
        },
        {
            "close_approach_date": "2021-05-29",
            "close_approach_date_full": "2021-May-29 01:28",
            "epoch_date_close_approach": 1622251680000,
            "relative_velocity": {
                "kilometers_per_second": "7.7441125367",
                "kilometers_per_hour": "27878.8051319712",
                "miles_per_hour": "17322.8053332518"
            },
            "miss_distance": {
                "astronomical": "1.5042156374",
                "lunar": "585.1398829486",
                "kilometers": "225027455.375732338",
                "miles": "139825576.9723207444"
            },
            "orbiting_body": "Juptr"
        }
    ],
    "orbital_data": {
        "orbit_id": "10",
        "orbit_determination_date": "2017-04-06 08:30:32",
        "first_observation_date": "2015-11-17",
        "last_observation_date": "2015-11-28",
        "data_arc_in_days": 11,
        "observations_used": 45,
        "orbit_uncertainty": "8",
        "minimum_orbit_intersection": ".0269065",
        "jupiter_tisserand_invariant": "3.113",
        "epoch_osculation": "2457345.5",
        "eccentricity": ".6946023230357424",
        "semi_major_axis": "2.440527140598115",
        "inclination": "5.506967220835813",
        "ascending_node_longitude": "219.4403516888881",
        "orbital_period": "1392.591979110321",
        "perihelion_distance": ".7453313193068865",
        "perihelion_argument": "275.5141699282807",
        "aphelion_distance": "4.135722961889344",
        "perihelion_time": "2457398.810210901413",
        "mean_anomaly": "346.2187372809877",
        "mean_motion": ".2585107521802557",
        "equinox": "J2000",
        "orbit_class": {
            "orbit_class_type": "APO",
            "orbit_class_description": "Near-Earth asteroid orbits which cross the Earth’s orbit similar to that of 1862 Apollo",
            "orbit_class_range": "a (semi-major axis) > 1.0 AU; q (perihelion) < 1.017 AU"
        }
    },
    "is_sentry_object": false
}